ONEWEB-0717             
1 55178U 23004AQ  23012.91667824 -.00047612  00000+0 -48947-2 0  9991
2 55178  86.5097 284.5853 0008941 203.5038  95.8599 14.90687164  1306
ONEWEB-0719             
1 55179U 23004AR  23012.91667824 -.00047997  00000+0 -48940-2 0  9991
2 55179  86.5111 284.5841 0010489 203.6375  98.7955 14.91005920  1309
1998-067UY              
1 55181U 98067UY  23012.85281635  .00072009  00000+0  12017-2 0  9996
2 55181  51.6422  17.9284 0003306 220.2755 139.7990 15.51293202  1018
HSKSAT                  
1 55182U 98067UZ  23012.85231909  .00050677  00000+0  85026-3 0  9994
2 55182  51.6422  17.9254 0002759 203.4043 156.6822 15.51295430  1028
1998-067VA              
1 55183U 98067VA  23012.85245415  .00043895  00000+0  73999-3 0  9992
2 55183  51.6429  17.9257 0005208 296.9177  63.1280 15.51215262  1021
2023-005B               
1 55240U 23005B   23013.33384360  .00002029 -64022-5  00000+0 0  9997
2 55240  28.5122  21.3340 0207127 113.7823   8.1235 15.74966302    96
